{
    "links": {
        "self": "http://www.neowsapp.com/rest/v1/neo/3267202?api_key=iIulBulltgU6a56xZRHN4H3l9WmuAYTsLGpBGhQ2"
    },
    "id": "3267202",
    "neo_reference_id": "3267202",
    "name": "(2005 CM7)",
    "designation": "2005 CM7",
    "nasa_jpl_url": "http://ssd.jpl.nasa.gov/sbdb.cgi?sstr=3267202",
    "absolute_magnitude_h": 26.2,
    "estimated_diameter": {
        "kilometers": {
            "estimated_diameter_min": 0.0152951935,
            "estimated_diameter_max": 0.0342010925
        },
        "meters": {
            "estimated_diameter_min": 15.2951935344,
            "estimated_diameter_max": 34.201092472
        },
        "miles": {
            "estimated_diameter_min": 0.0095039897,
            "estimated_diameter_max": 0.021251567
        },
        "feet": {
            "estimated_diameter_min": 50.1810827555,
            "estimated_diameter_max": 112.2083122258
        }
    },
    "is_potentially_hazardous_asteroid": false,
    "close_approach_data": [
        {
            "close_approach_date": "2005-02-01",
            "close_approach_date_full": "2005-Feb-01 18:43",
            "epoch_date_close_approach": 1107283380000,
            "relative_velocity": {
                "kilometers_per_second": "18.2606377563",
                "kilometers_per_hour": "65738.2959227848",
                "miles_per_hour": "40847.2205971326"
            },
            "miss_distance": {
                "astronomical": "0.0070572779",
                "lunar": "2.7452811031",
                "kilometers": "1055753.741838073",
                "miles": "656014.9553604874"
            },
            "orbiting_body": "Earth"
        },
        {
            "close_approach_date": "2005-02-01",
            "close_approach_date_full": "2005-Feb-01 19:26",
            "epoch_date_close_approach": 1107285960000,
            "relative_velocity": {
                "kilometers_per_second": "19.2824553851",
                "kilometers_per_hour": "69416.8393863672",
                "miles_per_hour": "43132.9244509347"
            },
            "miss_distance": {
                "astronomical": "0.005547242",
                "lunar": "2.157877138",
                "kilometers": "829855.58757454",
                "miles": "515648.351187052"
            },
            "orbiting_body": "Moon"
        }
    ],
    "orbital_data": {
        "orbit_id": "9",
        "orbit_determination_date": "2017-04-06 09:11:29",
        "first_observation_date": "2005-02-04",
        "last_observation_date": "2005-02-10",
        "data_arc_in_days": 6,
        "observations_used": 32,
        "orbit_uncertainty": "8",
        "minimum_orbit_intersection": ".00279024",
        "jupiter_tisserand_invariant": "3.931",
        "epoch_osculation": "2453407.5",
        "eccentricity": ".6305100305933415",
        "semi_major_axis": "1.708995757846687",
        "inclination": "4.897971436702923",
        "ascending_node_longitude": "136.6858662340344",
        "orbital_period": "816.0371002079389",
        "perihelion_distance": ".6314567902828816",
        "perihelion_argument": "270.5441340676605",
        "aphelion_distance": "2.786534725410493",
        "perihelion_time": "2453355.505512241536",
        "mean_anomaly": "22.93770171512717",
        "mean_motion": ".4411564129967454",
        "equinox": "J2000",
        "orbit_class": {
            "orbit_class_type": "APO",
            "orbit_class_description": "Near-Earth asteroid orbits which cross the Earth’s orbit similar to that of 1862 Apollo",
            "orbit_class_range": "a (semi-major axis) > 1.0 AU; q (perihelion) < 1.017 AU"
        }
    },
    "is_sentry_object": false
}